ICEYE-X53               
1 64584U 25135BJ  26189.95825733  .00000265  00000+0  25538-4 0  9990
2 64584  97.7367 306.6459 0001624 165.2225 194.9046 15.00868492 57342
ICEYE-X65               
1 66300U 25248H   26189.94577031  .00001970  00000+0  14234-3 0  9991
2 66300  45.4054  19.7638 0004843 164.1787 195.9246 15.07903294 38801
ICEYE-X66               
1 66301U 25248J   26189.55146799  .00002243  00000+0  15469-3 0  9997
2 66301  45.4021  20.9877 0004446 157.5963 202.5114 15.09149054 38735
ICEYE-X67               
1 66302U 25248K   26189.24509329  .00001799  00000+0  12721-3 0  9999
2 66302  45.4058  22.1771 0005971 156.3678 203.7480 15.09128573 38706
ICEYE-X58               
1 66751U 25276CP  26189.75060237  .00001719  00000+0  89601-4 0  9998
2 66751  97.4199 262.7597 0002039 268.9195  91.1805 15.17291067 33681
ICEYE-X59               
1 66752U 25276CQ  26189.74491189  .00003282  00000+0  26346-3 0  9995
2 66752  97.4372 260.1220 0000445 144.3253 215.8002 15.00715503 33504
ICEYE-X60               
1 66753U 25276CR  26189.77669178  .00002521  00000+0  15423-3 0  9993
2 66753  97.4297 261.7945 0000706 344.3487  15.7721 15.11110867 33625
ICEYE-X61               
1 66754U 25276CS  26189.77429763  .00002071  00000+0  10344-3 0  9995
2 66754  97.4192 262.8622 0001625 249.6726 110.4334 15.18585322 33697
ICEYE-X62               
1 66755U 25276CT  26189.73169495  .00001479  00000+0  94519-4 0  9993
2 66755  97.4194 261.2654 0000783 320.3388  39.7785 15.10117598 33582
ICEYE-X63               
1 67372U 26004K   26189.93191726  .00000669  00000+0  78159-4 0  9995
2 67372  97.8009 188.2319 0005711  67.0565 293.1254 14.88341294 26531
ICEYE-X64               
1 67373U 26004L   26189.91185577  .00000934  00000+0  10770-3 0  9990
2 67373  97.8022 188.1338 0007525  70.7889 289.4141 14.87977073 26523
ICEYE-X71               
1 68494U 26067CG  26189.86205272  .00001127  00000+0  11736-3 0  9991
2 68494  97.7616 147.7652 0001605   8.1643 351.9601 14.91774751 14955
ICEYE-X73               
1 68496U 26067CJ  26189.89211087  .00002033  00000+0  20439-3 0  9994
2 68496  97.7612 147.8755 0001033 157.7715 202.3549 14.92330572 14965
ICEYE-X75               
1 68497U 26067CK  26189.82881738  .00000942  00000+0  98021-4 0  9994
2 68497  97.7602 147.7835 0000880 152.9334 207.1931 14.92165254 14956
ICEYE-X74               
1 68500U 26067CN  26189.86118841  .00001117  00000+0  11638-3 0  9994
2 68500  97.7622 147.7742 0001425   4.7683 355.3549 14.91775180 14952
ICEYE-X76               
1 68502U 26067CQ  26189.85692240  .00000596  00000+0  64663-4 0  9992
2 68502  97.7635 147.7876 0001102 353.5323   6.5881 14.91742613 14953
